{"type": "FeatureCollection", "features": [ {"type": "Feature", "properties": {"norad_id": 34141, "name": "COSMOS 2251 DEB", "group": "cosmos-2251-debris", "lat": 26.23255732758975, "lon": -168.79546681506656, "alt_km": 704.5955062966577, "timestamp": "2025-12-17T19:34:08.431549+00:00", "meta": {"OBJECT_NAME": "COSMOS 2251 DEB", "OBJECT_ID": "1993-036LN", "EPOCH": "2025-12-17T04:14:33.082656", "MEAN_MOTION": 14.49287677, "ECCENTRICITY": 0.00467844, "INCLINATION": 74.0114, "RA_OF_ASC_NODE": 20.5259, "ARG_OF_PERICENTER": 105.2863, "MEAN_ANOMALY": 316.3134, "EPHEMERIS_TYPE": 0, "CLASSIFICATION_TYPE": "U", "NORAD_CAT_ID": 34141, "ELEMENT_SET_NO": 999, "REV_AT_EPOCH": 87758, "BSTAR": 0.0010525749, "MEAN_MOTION_DOT": 4.046e-05, "MEAN_MOTION_DDOT": 0}, "tle": {"line1": "1 34141U 93036LN  25351.17677179  .00004046  00000+0  10526-2 0  9994", "line2": "2 34141  74.0114  20.5259 0046784 105.2863 316.3134 14.49287677877580"}}, "geometry": {"type": "Point", "coordinates": [-168.79546681506656, 26.23255732758975]}}, {"type": "Feature", "properties": {"norad_id": 34270, "name": "COSMOS 2251 DEB", "group": "cosmos-2251-debris", "lat": 36.95726565527425, "lon": -50.695913401500746, "alt_km": 651.3681576491281, "timestamp": "2025-12-17T19:34:08.431559+00:00", "meta": {"OBJECT_NAME": "COSMOS 2251 DEB", "OBJECT_ID": "1993-036LQ", "EPOCH": "2025-12-17T06:17:03.060672", "MEAN_MOTION": 14.65206061, "ECCENTRICITY": 0.0047795, "INCLINATION": 74.0114, "RA_OF_ASC_NODE": 297.9123, "ARG_OF_PERICENTER": 89.3644, "MEAN_ANOMALY": 271.3, "EPHEMERIS_TYPE": 0, "CLASSIFICATION_TYPE": "U", "NORAD_CAT_ID": 34270, "ELEMENT_SET_NO": 999, "REV_AT_EPOCH": 89162, "BSTAR": 0.0005935056, "MEAN_MOTION_DOT": 3.219e-05, "MEAN_MOTION_DDOT": 0}, "tle": {"line1": "1 34270U 93036LQ  25351.26184098  .00003219  00000+0  59351-3 0  9991", "line2": "2 34270  74.0114 297.9123 0047795  89.3644 271.3000 14.65206061891624"}}, "geometry": {"type": "Point", "coordinates": [-50.695913401500746, 36.95726565527425]}}, {"type": "Feature", "properties": {"norad_id": 34271, "name": "COSMOS 2251 DEB", "group": "cosmos-2251-debris", "lat": 73.86500955316517, "lon": -88.41256556553923, "alt_km": 662.772976107598, "timestamp": "2025-12-17T19:34:08.431568+00:00", "meta": {"OBJECT_NAME": "COSMOS 2251 DEB", "OBJECT_ID": "1993-036LR", "EPOCH": "2025-12-17T00:16:05.831904", "MEAN_MOTION": 14.70853178, "ECCENTRICITY": 0.00186347, "INCLINATION": 74.0196, "RA_OF_ASC_NODE": 191.0278, "ARG_OF_PERICENTER": 244.7074, "MEAN_ANOMALY": 266.6692, "EPHEMERIS_TYPE": 0, "CLASSIFICATION_TYPE": "U", "NORAD_CAT_ID": 34271, "ELEMENT_SET_NO": 999, "REV_AT_EPOCH": 88297, "BSTAR": 0.00147912, "MEAN_MOTION_DOT": 9.049e-05, "MEAN_MOTION_DDOT": 0}, "tle": {"line1": "1 34271U 93036LR  25351.01117861  .00009049  00000+0  14791-2 0  9994", "line2": "2 34271  74.0196 191.0278 0018634 244.7074 266.6692 14.70853178882979"}}, "geometry": {"type": "Point", "coordinates": [-88.41256556553923, 73.86500955316517]}}, {"type": "Feature", "properties": {"norad_id": 34273, "name": "COSMOS 2251 DEB", "group": "cosmos-2251-debris", "lat": -62.32978681576666, "lon": 44.63634240984634, "alt_km": 695.7992487899892, "timestamp": "2025-12-17T19:34:08.431578+00:00", "meta": {"OBJECT_NAME": "COSMOS 2251 DEB", "OBJECT_ID": "1993-036LT", "EPOCH": "2025-12-17T06:59:33.959328", "MEAN_MOTION": 14.6126898, "ECCENTRICITY": 0.0013875, "INCLINATION": 74.0364, "RA_OF_ASC_NODE": 78.7247, "ARG_OF_PERICENTER": 204.5728, "MEAN_ANOMALY": 212.7554, "EPHEMERIS_TYPE": 0, "CLASSIFICATION_TYPE": "U", "NORAD_CAT_ID": 34273, "ELEMENT_SET_NO": 999, "REV_AT_EPOCH": 88688, "BSTAR": 0.0007109655, "MEAN_MOTION_DOT": 3.484e-05, "MEAN_MOTION_DDOT": 0}, "tle": {"line1": "1 34273U 93036LT  25351.29136527  .00003484  00000+0  71097-3 0  9996", "line2": "2 34273  74.0364  78.7247 0013875 204.5728 212.7554 14.61268980886881"}}, "geometry": {"type": "Point", "coordinates": [44.63634240984634, -62.32978681576666]}}, {"type": "Feature", "properties": {"norad_id": 34274, "name": "COSMOS 2251 DEB", "group": "cosmos-2251-debris", "lat": 71.12922528858523, "lon": 115.8444739798333, "alt_km": 679.9424942575179, "timestamp": "2025-12-17T19:34:08.431588+00:00", "meta": {"OBJECT_NAME": "COSMOS 2251 DEB", "OBJECT_ID": "1993-036LU", "EPOCH": "2025-12-17T06:21:03.289824", "MEAN_MOTION": 14.64837891, "ECCENTRICITY": 0.00218085, "INCLINATION": 74.0049, "RA_OF_ASC_NODE": 59.8497, "ARG_OF_PERICENTER": 209.7153, "MEAN_ANOMALY": 207.2048, "EPHEMERIS_TYPE": 0, "CLASSIFICATION_TYPE": "U", "NORAD_CAT_ID": 34274, "ELEMENT_SET_NO": 999, "REV_AT_EPOCH": 88742, "BSTAR": 0.00083929082, "MEAN_MOTION_DOT": 4.468e-05, "MEAN_MOTION_DDOT": 0}, "tle": {"line1": "1 34274U 93036LU  25351.26462141  .00004468  00000+0  83929-3 0  9998", "line2": "2 34274  74.0049  59.8497 0021808 209.7153 207.2048 14.64837891887427"}}, "geometry": {"type": "Point", "coordinates": [115.8444739798333, 71.12922528858523]}}, {"type": "Feature", "properties": {"norad_id": 34276, "name": "COSMOS 2251 DEB", "group": "cosmos-2251-debris", "lat": -56.02900988380525, "lon": -79.16656927967723, "alt_km": 693.5821351574332, "timestamp": "2025-12-17T19:34:08.431597+00:00", "meta": {"OBJECT_NAME": "COSMOS 2251 DEB", "OBJECT_ID": "1993-036LW", "EPOCH": "2025-12-17T07:12:05.133024", "MEAN_MOTION": 14.57260118, "ECCENTRICITY": 0.00224498, "INCLINATION": 74.0243, "RA_OF_ASC_NODE": 76.6506, "ARG_OF_PERICENTER": 223.0032, "MEAN_ANOMALY": 194.1612, "EPHEMERIS_TYPE": 0, "CLASSIFICATION_TYPE": "U", "NORAD_CAT_ID": 34276, "ELEMENT_SET_NO": 999, "REV_AT_EPOCH": 88659, "BSTAR": 0.000568739, "MEAN_MOTION_DOT": 2.552e-05, "MEAN_MOTION_DDOT": 0}, "tle": {"line1": "1 34276U 93036LW  25351.30005941  .00002552  00000+0  56874-3 0  9997", "line2": "2 34276  74.0243  76.6506 0022449 223.0032 194.1612 14.57260118886592"}}, "geometry": {"type": "Point", "coordinates": [-79.16656927967723, -56.02900988380525]}}, {"type": "Feature", "properties": {"norad_id": 34297, "name": "COSMOS 2251 DEB", "group": "cosmos-2251-debris", "lat": -52.106865355136144, "lon": 116.47328485968536, "alt_km": 779.9750675027335, "timestamp": "2025-12-17T19:34:08.431608+00:00", "meta": {"OBJECT_NAME": "COSMOS 2251 DEB", "OBJECT_ID": "1993-036MT", "EPOCH": "2025-12-17T05:48:24.422112", "MEAN_MOTION": 14.36633245, "ECCENTRICITY": 0.00174648, "INCLINATION": 74.0488, "RA_OF_ASC_NODE": 275.9652, "ARG_OF_PERICENTER": 343.7638, "MEAN_ANOMALY": 167.0245, "EPHEMERIS_TYPE": 0, "CLASSIFICATION_TYPE": "U", "NORAD_CAT_ID": 34297, "ELEMENT_SET_NO": 999, "REV_AT_EPOCH": 88129, "BSTAR": 0.00011467854, "MEAN_MOTION_DOT": 3.12e-06, "MEAN_MOTION_DDOT": 0}, "tle": {"line1": "1 34297U 93036MT  25351.24194933  .00000312  00000+0  11468-3 0  9995", "line2": "2 34297  74.0488 275.9652 0017464 343.7638 167.0245 14.36633245881290"}}, "geometry": {"type": "Point", "coordinates": [116.47328485968536, -52.106865355136144]}}, {"type": "Feature", "properties": {"norad_id": 34299, "name": "COSMOS 2251 DEB", "group": "cosmos-2251-debris", "lat": -16.231707183965746, "lon": 147.67729283991804, "alt_km": 329.8997234553872, "timestamp": "2025-12-17T19:34:08.431617+00:00", "meta": {"OBJECT_NAME": "COSMOS 2251 DEB", "OBJECT_ID": "1993-036MV", "EPOCH": "2025-12-17T00:32:28.204224", "MEAN_MOTION": 15.82133099, "ECCENTRICITY": 0.00149106, "INCLINATION": 73.9731, "RA_OF_ASC_NODE": 324.7099, "ARG_OF_PERICENTER": 68.8912, "MEAN_ANOMALY": 291.391, "EPHEMERIS_TYPE": 0, "CLASSIFICATION_TYPE": "U", "NORAD_CAT_ID": 34299, "ELEMENT_SET_NO": 999, "REV_AT_EPOCH": 89078, "BSTAR": 0.0057119971, "MEAN_MOTION_DOT": 0.01335458, "MEAN_MOTION_DDOT": 0}, "tle": {"line1": "1 34299U 93036MV  25351.02254866  .01335458  00000+0  57120-2 0  9992", "line2": "2 34299  73.9731 324.7099 0014910  68.8912 291.3910 15.82133099890780"}}, "geometry": {"type": "Point", "coordinates": [147.67729283991804, -16.231707183965746]}}, {"type": "Feature", "properties": {"norad_id": 34301, "name": "COSMOS 2251 DEB", "group": "cosmos-2251-debris", "lat": -20.60336042482621, "lon": 150.42118764570557, "alt_km": 622.9996127683044, "timestamp": "2025-12-17T19:34:08.431628+00:00", "meta": {"OBJECT_NAME": "COSMOS 2251 DEB", "OBJECT_ID": "1993-036MX", "EPOCH": "2025-12-16T21:33:24.981120", "MEAN_MOTION": 14.84752379, "ECCENTRICITY": 0.00109315, "INCLINATION": 74.0041, "RA_OF_ASC_NODE": 158.4351, "ARG_OF_PERICENTER": 220.3297, "MEAN_ANOMALY": 257.8184, "EPHEMERIS_TYPE": 0, "CLASSIFICATION_TYPE": "U", "NORAD_CAT_ID": 34301, "ELEMENT_SET_NO": 999, "REV_AT_EPOCH": 88462, "BSTAR": 0.0026616578, "MEAN_MOTION_DOT": 0.00022635, "MEAN_MOTION_DDOT": 0}, "tle": {"line1": "1 34301U 93036MX  25350.89820580  .00022635  00000+0  26617-2 0  9998", "line2": "2 34301  74.0041 158.4351 0010931 220.3297 257.8184 14.84752379884628"}}, "geometry": {"type": "Point", "coordinates": [150.42118764570557, -20.60336042482621]}}, {"type": "Feature", "properties": {"norad_id": 34302, "name": "COSMOS 2251 DEB", "group": "cosmos-2251-debris", "lat": -38.939661087519035, "lon": 101.04661804452897, "alt_km": 710.9684725059833, "timestamp": "2025-12-17T19:34:08.431638+00:00", "meta": {"OBJECT_NAME": "COSMOS 2251 DEB", "OBJECT_ID": "1993-036MY", "EPOCH": "2025-12-17T08:13:48.930816", "MEAN_MOTION": 14.39348883, "ECCENTRICITY": 0.00790492, "INCLINATION": 74.1783, "RA_OF_ASC_NODE": 115.1568, "ARG_OF_PERICENTER": 329.0928, "MEAN_ANOMALY": 63.283, "EPHEMERIS_TYPE": 0, "CLASSIFICATION_TYPE": "U", "NORAD_CAT_ID": 34302, "ELEMENT_SET_NO": 999, "REV_AT_EPOCH": 87787, "BSTAR": 0.00047507698, "MEAN_MOTION_DOT": 1.505e-05, "MEAN_MOTION_DDOT": 0}, "tle": {"line1": "1 34302U 93036MY  25351.34292744  .00001505  00000+0  47508-3 0  9991", "line2": "2 34302  74.1783 115.1568 0079049 329.0928  63.2830 14.39348883877873"}}, "geometry": {"type": "Point", "coordinates": [101.04661804452897, -38.939661087519035]}}]}